{
  "type": "FeatureCollection",
  "features": [
    {
      "type": "Feature",
      "properties": {
        "norad_id": 66598,
        "name": "STARLINK-35981",
        "group": "last-30-days",
        "lat": 37.408214084811014,
        "lon": -123.09449435569167,
        "alt_km": 409.76639506680203,
        "timestamp": "2025-12-14T14:39:28.132268+00:00",
        "meta_object_name": "STARLINK-35981",
        "meta_object_id": "2025-270L",
        "meta_epoch": "2025-12-13T20:00:03.000384",
        "meta_mean_motion": 15.50520997,
        "meta_eccentricity": 0.00014413,
        "meta_inclination": 42.9998,
        "meta_ra_of_asc_node": 186.2963,
        "meta_arg_of_pericenter": 264.4082,
        "meta_mean_anomaly": 134.0635,
        "meta_ephemeris_type": 0,
        "meta_classification_type": "U",
        "meta_norad_cat_id": 66598,
        "meta_element_set_no": 999,
        "meta_rev_at_epoch": 441,
        "meta_bstar": 0.0012665475,
        "meta_mean_motion_dot": 0.00074517,
        "meta_mean_motion_ddot": 0,
        "tle_line1": "1 66598U 25270L   25347.83336806  .00074517  00000+0  12665-2 0  9993",
        "tle_line2": "2 66598  42.9998 186.2963 0001441 264.4082 134.0635 15.50520997  4412"
      },
      "geometry": {
        "type": "Point",
        "coordinates": [
          -123.09449435569167,
          37.408214084811014
        ]
      }
    },
    {
      "type": "Feature",
      "properties": {
        "norad_id": 66599,
        "name": "STARLINK-35930",
        "group": "last-30-days",
        "lat": 38.133264229849274,
        "lon": -120.85477261219495,
        "alt_km": 409.01249648117846,
        "timestamp": "2025-12-14T14:39:28.132278+00:00",
        "meta_object_name": "STARLINK-35930",
        "meta_object_id": "2025-270M",
        "meta_epoch": "2025-12-13T20:00:03.000384",
        "meta_mean_motion": 15.50519893,
        "meta_eccentricity": 4.333e-05,
        "meta_inclination": 42.9998,
        "meta_ra_of_asc_node": 186.2927,
        "meta_arg_of_pericenter": 275.7722,
        "meta_mean_anomaly": 124.617,
        "meta_ephemeris_type": 0,
        "meta_classification_type": "U",
        "meta_norad_cat_id": 66599,
        "meta_element_set_no": 999,
        "meta_rev_at_epoch": 457,
        "meta_bstar": 0.0012926863,
        "meta_mean_motion_dot": 0.00076073,
        "meta_mean_motion_ddot": 0,
        "tle_line1": "1 66599U 25270M   25347.83336806  .00076073  00000+0  12927-2 0  9994",
        "tle_line2": "2 66599  42.9998 186.2927 0000433 275.7722 124.6170 15.50519893  4578"
      },
      "geometry": {
        "type": "Point",
        "coordinates": [
          -120.85477261219495,
          38.133264229849274
        ]
      }
    },
    {
      "type": "Feature",
      "properties": {
        "norad_id": 66600,
        "name": "STARLINK-35980",
        "group": "last-30-days",
        "lat": 38.81365248108681,
        "lon": -118.57637036603936,
        "alt_km": 410.2415527859275,
        "timestamp": "2025-12-14T14:39:28.132290+00:00",
        "meta_object_name": "STARLINK-35980",
        "meta_object_id": "2025-270N",
        "meta_epoch": "2025-12-13T20:00:03.000384",
        "meta_mean_motion": 15.505215,
        "meta_eccentricity": 0.00025763,
        "meta_inclination": 42.9996,
        "meta_ra_of_asc_node": 186.2875,
        "meta_arg_of_pericenter": 270.1868,
        "meta_mean_anomaly": 132.1174,
        "meta_ephemeris_type": 0,
        "meta_classification_type": "U",
        "meta_norad_cat_id": 66600,
        "meta_element_set_no": 999,
        "meta_rev_at_epoch": 447,
        "meta_bstar": 0.0011330823,
        "meta_mean_motion_dot": 0.00066566,
        "meta_mean_motion_ddot": 0,
        "tle_line1": "1 66600U 25270N   25347.83336806  .00066566  00000+0  11331-2 0  9991",
        "tle_line2": "2 66600  42.9996 186.2875 0002576 270.1868 132.1174 15.50521500  4476"
      },
      "geometry": {
        "type": "Point",
        "coordinates": [
          -118.57637036603936,
          38.81365248108681
        ]
      }
    },
    {
      "type": "Feature",
      "properties": {
        "norad_id": 66601,
        "name": "STARLINK-35978",
        "group": "last-30-days",
        "lat": 36.82079925521707,
        "lon": -124.79036035914261,
        "alt_km": 422.33011666401217,
        "timestamp": "2025-12-14T14:39:28.132300+00:00",
        "meta_object_name": "STARLINK-35978",
        "meta_object_id": "2025-270P",
        "meta_epoch": "2025-12-13T20:00:03.000384",
        "meta_mean_motion": 15.49851228,
        "meta_eccentricity": 0.00011096,
        "meta_inclination": 42.9996,
        "meta_ra_of_asc_node": 186.2818,
        "meta_arg_of_pericenter": 271.9421,
        "meta_mean_anomaly": 132.0323,
        "meta_ephemeris_type": 0,
        "meta_classification_type": "U",
        "meta_norad_cat_id": 66601,
        "meta_element_set_no": 999,
        "meta_rev_at_epoch": 441,
        "meta_bstar": -0.041295062,
        "meta_mean_motion_dot": -0.02096132,
        "meta_mean_motion_ddot": 0,
        "tle_line1": "1 66601U 25270P   25347.83336806 -.02096132  00000+0 -41295-1 0  9999",
        "tle_line2": "2 66601  42.9996 186.2818 0001109 271.9421 132.0323 15.49851228  4419"
      },
      "geometry": {
        "type": "Point",
        "coordinates": [
          -124.79036035914261,
          36.82079925521707
        ]
      }
    },
    {
      "type": "Feature",
      "properties": {
        "norad_id": 66602,
        "name": "STARLINK-36050",
        "group": "last-30-days",
        "lat": -0.43760661634146353,
        "lon": -178.5680201859504,
        "alt_km": 444.01860730633507,
        "timestamp": "2025-12-14T14:39:28.132314+00:00",
        "meta_object_name": "STARLINK-36050",
        "meta_object_id": "2025-270Q",
        "meta_epoch": "2025-12-13T20:00:03.000384",
        "meta_mean_motion": 15.40662865,
        "meta_eccentricity": 0.00015776,
        "meta_inclination": 42.9996,
        "meta_ra_of_asc_node": 186.3823,
        "meta_arg_of_pericenter": 255.1434,
        "meta_mean_anomaly": 107.478,
        "meta_ephemeris_type": 0,
        "meta_classification_type": "U",
        "meta_norad_cat_id": 66602,
        "meta_element_set_no": 999,
        "meta_rev_at_epoch": 447,
        "meta_bstar": 0.00069530869,
        "meta_mean_motion_dot": 0.00028815,
        "meta_mean_motion_ddot": 0,
        "tle_line1": "1 66602U 25270Q   25347.83336806  .00028815  00000+0  69531-3 0  9994",
        "tle_line2": "2 66602  42.9996 186.3823 0001577 255.1434 107.4780 15.40662865  4471"
      },
      "geometry": {
        "type": "Point",
        "coordinates": [
          -178.5680201859504,
          -0.43760661634146353
        ]
      }
    },
    {
      "type": "Feature",
      "properties": {
        "norad_id": 66603,
        "name": "STARLINK-36048",
        "group": "last-30-days",
        "lat": 40.56182904681534,
        "lon": -111.55923407719668,
        "alt_km": 409.7511587582376,
        "timestamp": "2025-12-14T14:39:28.132325+00:00",
        "meta_object_name": "STARLINK-36048",
        "meta_object_id": "2025-270R",
        "meta_epoch": "2025-12-13T20:00:03.000384",
        "meta_mean_motion": 15.50546418,
        "meta_eccentricity": 0.00016452,
        "meta_inclination": 42.9997,
        "meta_ra_of_asc_node": 186.2724,
        "meta_arg_of_pericenter": 250.6549,
        "meta_mean_anomaly": 157.3977,
        "meta_ephemeris_type": 0,
        "meta_classification_type": "U",
        "meta_norad_cat_id": 66603,
        "meta_element_set_no": 999,
        "meta_rev_at_epoch": 447,
        "meta_bstar": 0.00013154381,
        "meta_mean_motion_dot": 7.374e-05,
        "meta_mean_motion_ddot": 0,
        "tle_line1": "1 66603U 25270R   25347.83336806  .00007374  00000+0  13154-3 0  9992",
        "tle_line2": "2 66603  42.9997 186.2724 0001645 250.6549 157.3977 15.50546418  4473"
      },
      "geometry": {
        "type": "Point",
        "coordinates": [
          -111.55923407719668,
          40.56182904681534
        ]
      }
    },
    {
      "type": "Feature",
      "properties": {
        "norad_id": 66604,
        "name": "STARLINK-35977",
        "group": "last-30-days",
        "lat": 41.06446119692895,
        "lon": -109.05266504201745,
        "alt_km": 409.4586180382339,
        "timestamp": "2025-12-14T14:39:28.132337+00:00",
        "meta_object_name": "STARLINK-35977",
        "meta_object_id": "2025-270S",
        "meta_epoch": "2025-12-13T20:00:03.000384",
        "meta_mean_motion": 15.50468794,
        "meta_eccentricity": 0.00015548,
        "meta_inclination": 42.9997,
        "meta_ra_of_asc_node": 186.2679,
        "meta_arg_of_pericenter": 262.0513,
        "meta_mean_anomaly": 148.0151,
        "meta_ephemeris_type": 0,
        "meta_classification_type": "U",
        "meta_norad_cat_id": 66604,
        "meta_element_set_no": 999,
        "meta_rev_at_epoch": 457,
        "meta_bstar": 0.0014187105,
        "meta_mean_motion_dot": 0.00083451,
        "meta_mean_motion_ddot": 0,
        "tle_line1": "1 66604U 25270S   25347.83336806  .00083451  00000+0  14187-2 0  9999",
        "tle_line2": "2 66604  42.9997 186.2679 0001554 262.0513 148.0151 15.50468794  4572"
      },
      "geometry": {
        "type": "Point",
        "coordinates": [
          -109.05266504201745,
          41.06446119692895
        ]
      }
    }
  ]
}